STARLINK-31176          
1 58745U 24005T   26068.48997124 -.00003501  00000+0 -12083-3 0  9993
2 58745  43.0008 220.8392 0001327 240.5194 119.5525 15.26762477120457
KUIPER-00204            
1 67145U 25301N   26068.39760395  .00020516  00000+0  79568-3 0  9999
2 67145  51.8870  71.6415 0003071 354.8934   5.2016 15.26088400 13737
